PK15M020 8.45  0.15 K17BB  40.88416  224.77982   86.58667    3.97346  0.1800222  0.05091238   7.2097541    FO 260131   144   1 2015-2017 0.46         Find_Orb   0000 P/2015 M2                   20171111
PK15P04014.40  0.15 K15CB 357.42918  280.81896  104.74520    8.71369  0.5841825  0.06586085   6.0727372    FO 260131    75   1  140 days 0.39         Find_Orb   0000 P/2015 P4                   20151211
PK15PM9D10.38  0.15 K16BO  24.01299  352.30914  342.76550    2.02629  0.3268107  0.05126616   7.1765469    FO 260131   109   1  548 days 0.34         Find_Orb   0000 P/2015 PD229                20161124
PK15Q02015.18  0.15 K15B9   2.91472  244.40762  228.24645  146.20208  0.7545383  0.04885205   7.4110687    FO 260131    54   1   78 days 0.50         Find_Orb   0000 P/2015 Q2                   20151109
PK15R01013.80  0.15 K161D  13.84629  300.54154   48.51338   22.66980  0.6328371  0.06880739   5.8981071    FO 260131   245   1  127 days 0.42         Find_Orb   0000 P/2015 R1                   20160113
PK15R02015.68  0.15 K159I  10.37816  150.04617  168.68616   15.40609  0.4500341  0.10380586   4.4838885    FO 260131    23   1   10 days 0.37         Find_Orb   0000 P/2015 R2                   20150918
PK15T19O13.84  0.15 K168C  15.98705   89.28824  321.64433    6.49996  0.3586516  0.10116943   4.5614527    FO 260131    54   1  336 days 0.42         Find_Orb   0000 P/2015 TO19                 20160812
PK15TK0P10.09  0.15 K1846  26.25264   82.77403    6.97581    8.77198  0.5357301  0.05003472   7.2938206    FO 260131   651   1 2015-2018 0.46         Find_Orb   0000 P/2015 TP200                20180406
PK15V79Z15.03  0.15 K15B7  45.81756  242.13331  104.36181    4.96486  0.0387498  0.22007435   2.7170008    FO 260131     5   1 24.3 hrs  0.07         Find_Orb   0000 P/2015 VZ79                 20151107
PK15W02013.73  0.15 K1622   6.17503  117.63902  294.24478   11.61196  0.6340829  0.04976748   7.3199083    FO 260131   183   1   81 days 0.36         Find_Orb   0000 P/2015 W2                   20160202
PK15X03014.47  0.15 K15CA  10.87091  306.88468   77.33309   24.37237  0.4382142  0.08753817   5.0234767    FO 260131    28   1   35 days 0.34         Find_Orb   0000 P/2015 X3                   20151210
PK15X06016.07  0.15 K1637 357.49582  329.01432  107.11046    4.55819  0.1696128  0.21558276   2.7546094    FO 260131    46   1  117 days 0.36         Find_Orb   0000 P/2015 X6                   20160307
PK16A030 9.45  0.15 K196T  35.36483  340.26075  187.48379    8.52521  0.3887471  0.04460482   7.8743528    FO 260131   177   1 2016-2019 0.47         Find_Orb   0000 P/2016 A3                   20190629
PK16A07016.01  0.15 K1667   8.94642  352.46987  221.46539   16.63691  0.5665371  0.08759252   5.0213986    FO 260131    45   1  145 days 0.43         Find_Orb   0000 P/2016 A7                   20160607
PK16G01013.87  0.15 K169Q 330.99157  111.28581  204.07514   10.96813  0.2101557  0.23737779   2.5833069    FO 260131   134   1  198 days 0.54         Find_Orb   0000 P/2016 G1                   20160926
PK16J01a16.40  0.15 K1684   7.10391   46.60521  199.85548   14.32981  0.2282943  0.17445275   3.1721290    FO 260131    68   1  153 days 0.38         Find_Orb   0000 P/2016 J1-A                 20160804
PK16J01b17.35  0.15 K1684   7.12981   46.58075  199.85573   14.33134  0.2282410  0.17445551   3.1720956    FO 260131    50   1  112 days 0.27         Find_Orb   0000 P/2016 J1-B                 20160804
PK16P01015.58  0.15 K168C  56.42297  269.35039  319.60235   24.71685  0.2894294  0.17224007   3.1992382    FO 260131    38   1   11 days 0.35         Find_Orb   0000 P/2016 P1                   20160812
PK16P05015.05  0.15 K259P  82.98068   33.75399  185.37076    7.03825  0.0573539  0.09673579   4.6997842    FO 260131   200   1 2004-2025 0.25 M-N 00  Find_Orb   0000 P/2016 P5                   20250925
PK16R04013.13  0.15 K16BQ  10.27954  174.05254  168.34686   10.86215  0.4750725  0.07998156   5.3351028    FO 260131   186   1  132 days 0.48         Find_Orb   0000 P/2016 R4                   20161126
PK16S01011.97  0.15 K176C   3.60512  273.61898  227.53985   94.69025  0.7087446  0.04135943   8.2810681    FO 260131   125   1  265 days 0.43         Find_Orb   0000 P/2016 S1                   20170612
PK16W48M15.75  0.15 K178F   7.11394   35.85314   59.87585  117.54895  0.7866051  0.04203829   8.1916751    FO 260131   172   1  259 days 0.40         Find_Orb   0000 P/2016 WM48                 20170815
PK17B04014.59  0.15 K173S   6.43680   16.16298  121.54825   20.18426  0.3577454  0.10729104   4.3862536    FO 260131    86   1   96 days 0.44         Find_Orb   0000 P/2017 B4                   20170328
PK17B060 0.00  0.15 K171Q 303.03245   52.70194  140.64989   10.12696  0.6941643  0.29527491   2.2334952    FO 260131     9   1   35 days 0.11         Find_Orb   0000 P/2017 B6                   20170126
PK17D01014.46  0.15 K1737  23.55646    7.28863   82.33210   20.73172  0.4403761  0.09362429   4.8033439    FO 260131    70   1  546 days 0.44         Find_Orb   0000 P/2017 D1                   20170307
PK17D04013.61  0.15 K175N  12.56867  209.83009  266.08766   10.33937  0.6292461  0.04866294   7.4302569    FO 260131    90   1  123 days 0.44         Find_Orb   0000 P/2017 D4                   20170523
PK17F36L16.65  0.15 K1741 125.52078   84.39718  313.65243   15.67875  0.0308915  0.19664926   2.9286974    FO 260131    25   1   37 days 0.20         Find_Orb   0000 P/2017 FL36                 20170401
PK17G01013.57  0.15 K177J  20.52216  217.94790  258.19438    3.59078  0.6587266  0.04637827   7.6723137    FO 260131    28   1  116 days 0.28         Find_Orb   0000 P/2017 G1                   20170719
PK17G02012.88  0.15 K177Q   1.78434  105.94768   79.81804   47.90651  0.6504069  0.04242643   8.1416370    FO 260131   162   1  130 days 0.41         Find_Orb   0000 P/2017 G2                   20170726
PK17K03014.65  0.15 K177K   3.71877  253.15963  354.33314    4.27927  0.5811385  0.07491653   5.5729390    FO 260131    91   1  174 days 0.46         Find_Orb   0000 P/2017 K3                   20170720
PK17P01010.11  0.15 K189E   3.93496  122.21880  221.39389    7.70131  0.3085175  0.04468729   7.8646610    FO 260131    44   1  446 days 0.31         Find_Orb   0000 P/2017 P1                   20180914
PK17S08016.63  0.15 K1829   2.42094  254.56696  191.80204   29.85071  0.3935046  0.21321727   2.7749456    FO 260131   162   1  137 days 0.53         Find_Orb   0000 P/2017 S8                   20180209
PK17T13W15.01  0.15 K1976  19.56961  120.09370  322.27688   44.84202  0.7095128  0.05149019   7.1557152    FO 260131   192   1 2017-2019 0.33         Find_Orb   0000 P/2017 TW13                 20190706
PK17U03010.92  0.15 K181J 318.85259  297.45074  165.14605   15.90795  0.0997184  0.08986682   4.9363182    FO 260131    61   1  454 days 0.48         Find_Orb   0000 P/2017 U3                   20180119
PK17W03010.48  0.15 K185E   3.56870  326.46377  210.75315   18.31715  0.5039833  0.04580218   7.7365139    FO 260131   112   1  168 days 0.60         Find_Orb   0000 P/2017 W3                   20180514
PK17Y03016.76  0.15 K189H   6.93508   67.52964  153.87220   27.58556  0.8706037  0.03184911   9.8568436    FO 260131    86   1  265 days 0.49         Find_Orb   0000 P/2017 Y3                   20180917
PK18A05015.24  0.15 K181K   8.67914  359.67789   87.82997   23.57725  0.5230080  0.07343757   5.6475125    FO 260131    36   1  394 days 0.25         Find_Orb   0000 P/2018 A5                   20180120
PK18C01013.92  0.15 K185S   6.84523  234.32827  270.44932    5.13347  0.5344477  0.07486260   5.5756148    FO 260131   121   1  133 days 0.44         Find_Orb   0000 P/2018 C1                   20180528
PK18H02016.43  0.15 K186C  14.86487  120.22157   68.45582    7.38904  0.5401025  0.10651545   4.4075203    FO 260131   162   1  207 days 0.46         Find_Orb   0000 P/2018 H2                   20180612
PK18L04017.85  0.15 K18AF   6.75889  140.43556  145.19216   26.62584  0.6602584  0.08993425   4.9338503    FO 260131   125   1  150 days 0.56         Find_Orb   0000 P/2018 L4                   20181015
PK18P04014.19  0.15 K18C4   1.53509    8.09888  353.11027   23.11300  0.4492813  0.05738159   6.6571393    FO 260131   113   1  147 days 0.44         Find_Orb   0000 P/2018 P4                   20181204
PK18V02N16.22  0.15 K18CD  22.93447  138.77417  226.54905   18.24033  0.4776654  0.12031403   4.0637334    FO 260131   104   1  165 days 0.48         Find_Orb   0000 P/2018 VN2                  20181213
PK18V05015.85  0.15 K201R  17.65717  260.77541  171.31750   10.57995  0.4745988  0.03674708   8.9602650    FO 260131    12   1  527 days 0.84         Find_Orb   0000 P/2018 V5                   20200127
PK18Y02013.84  0.15 K193L   3.72418  162.52015  297.26406   11.68103  0.4793521  0.04819775   7.4779899    FO 260131    78   1  102 days 0.46         Find_Orb   0000 P/2018 Y2                   20190321
PK19A01016.59  0.15 K192S  11.87224  150.85034  312.29902   13.74300  0.5688527  0.08483371   5.1296816    FO 260131    60   1   86 days 0.35         Find_Orb   0000 P/2019 A1                   20190228
PK19A02013.25  0.15 K215D  65.15180  324.01922  139.47124   14.85994  0.3813521  0.07201957   5.7214005    FO 260131   276   1 2018-2021 0.45         Find_Orb   0000 P/2019 A2                   20210513
PK19A03018.67  0.15 K2241 236.11268  325.56551   31.29179   15.37304  0.2659630  0.17665429   3.1457190    FO 260131    66   1 2018-2022 0.28         Find_Orb   0000 P/2019 A3                   20220401
PK19A04017.24  0.15 K1932  20.23221  341.84976  119.30017   13.31906  0.0895864  0.23328101   2.6134636    FO 260131    73   1   83 days 0.53         Find_Orb   0000 P/2019 A4                   20190302
PK19A06017.07  0.15 K1931  14.54286  156.30484  280.27084   33.22732  0.6391178  0.07917015   5.3714936    FO 260131    53   1  111 days 0.38         Find_Orb   0000 P/2019 A6                   20190301
